#aV2012  5  6  0  0  0.00000000     288 DD+AD WGS84 FIT  NGA
## 1687      0.00000000   300.00000000 56053 0.0000000000000
+   31     1  2  3  4  5  6  7  8  9 10 11 12 13 14 15 16 17
+         18 19 20 21 22 23 25 26 27 28 29 30 31 32  0  0  0
+          0  0  0  0  0  0  0  0  0  0  0  0  0  0  0  0  0
+          0  0  0  0  0  0  0  0  0  0  0  0  0  0  0  0  0
+          0  0  0  0  0  0  0  0  0  0  0  0  0  0  0  0  0
++         2  2  2  2  2  2  2  2  2  2  2  2  2  2  2  2  2
++         2  2  2  2  2  2  2  2  2  2  2  2  2  2  2  0  0
++         0  0  0  0  0  0  0  0  0  0  0  0  0  0  0  0  0
++         0  0  0  0  0  0  0  0  0  0  0  0  0  0  0  0  0
++         0  0  0  0  0  0  0  0  0  0  0  0  0  0  0  0  0
%c cc cc ccc ccc cccc cccc cccc cccc ccccc ccccc ccccc ccccc
%c cc cc ccc ccc cccc cccc cccc cccc ccccc ccccc ccccc ccccc
%f  0.0000000  0.000000000  0.00000000000  0.000000000000000
%f  0.0000000  0.000000000  0.00000000000  0.000000000000000
%i    0    0    0    0      0      0      0      0         0
%i    0    0    0    0      0      0      0      0         0
/*      NGA, ST. LOUIS,MO.                                  
/*   EPHEMERIS COMPUTED FROM  1 DAYS OF DATA
/*   EPOCHA SMOOTHER  
/* CCCCCCCCCCCCCCCCCCCCCCCCCCCCCCCCCCCCCCCCCCCCCCCCCCCCCCCCC
*  2012  5  6 21  0  0.00000000                                                 
P  1  -9215.891149 -13789.830309 -20758.228190    254.863649                    
V  1  26167.581117  -3110.400442  -9524.455216      0.026959                    
P  2 -15648.980702  13640.250551  16400.576367    389.298690                    
V  2 -21013.360392   -456.761461 -20326.756623      0.013552                    
P  3   9787.166547 -24329.776472   2654.799552     45.428672                    
V  3   2629.744359   4998.252810  31009.357364      0.049876                    
P  4 -24870.972554   6949.953939   6635.215257    175.422090                    
V  4  -8931.011403  -2429.961400 -29501.184346      0.116292                    
P  5  -4283.261986  17788.867942  19187.111907   -312.562375                    
V  5 -15207.709247 -19241.803802  14551.056333     -0.039305                    
P  6  13975.154344 -21401.730784   6747.001835     27.654890                    
V  6    155.762667   9233.358428  29819.446316     -0.020807                    
P  7 -21852.346712  -7562.035390  13310.004160     78.906504                    
V  7  16594.769949  -2806.641207  25438.543284      0.033782                    
P  8 -26849.780143   -990.414078    877.060113      1.171082                    
V  8   1030.116389  -1125.004506  32142.563242      0.001318                    
P  9   4333.315499  14519.328783 -22369.486548    156.436595                    
V  9 -26863.030671   2711.527901  -3567.549769      0.025421                    
P 10 -17035.089736    657.300439  20209.118656    -37.489744                    
V 10 -13690.347773 -22330.696947 -10289.692629     -0.011551                    
P 11  -3157.827985 -16787.855464 -20694.035559   -258.667640                    
V 11  24437.983598  -8329.329984   3411.564529     -0.037403                    
P 12   9467.828941  23724.094300  -7652.176136     67.515708                    
V 12  -6899.948336  -7000.023931 -30057.644934      0.021118                    
P 13 -11253.953649  -9527.364649  21939.179226    209.020754                    
V 13  14501.144697 -24124.407646  -3109.759917     -0.023192                    
P 14  18044.042983  -8709.698504 -17184.469826    202.076063                    
V 14  -9408.573253  20144.723283 -20022.924193      0.009989                    
P 15   -720.093505  23430.098384 -12289.314701    -91.329177                    
V 15  -9006.461355  13184.608394  25888.434028     -0.000130                    
P 16   4990.551776 -16891.859568  19782.048669   -233.962348                    
V 16  14394.352002  20657.093464  14321.700854     -0.013203                    
P 17 -17781.725099   6682.949335 -18286.733174    130.679895                    
V 17   9374.237957 -21794.687857 -17146.756224     -0.027581                    
P 18  19461.980899  14818.258943 -10426.945212    194.454269                    
V 18   5132.953159  13075.987133  26863.678006      0.018205                    
P 19   4793.103280 -23488.258917 -11032.810843   -262.711256                    
V 19   9487.211367 -10773.883733  27546.912555     -0.037301                    
P 20 -13874.967878 -22453.734518  -3433.584542     63.306946                    
V 20   5430.251452   1120.049819 -30628.087994      0.000901                    
P 21  24621.859139   5379.715628   9745.762311   -221.990136                    
V 21 -11312.846520   3650.895243  27397.505143     -0.024658                    
P 22  17745.182217     43.279982 -19616.380663    143.681244                    
V 22  13020.415719  21842.848591  11594.892642      0.002539                    
P 23  -4481.491817 -19114.370927  17741.276843    207.855033                    
V 23  11582.459248 -19508.642704 -18489.097996     -0.036633                    
P 25  18062.100480  18629.167827   5795.116256     33.709278                    
V 25   2277.670471   7427.722487 -30751.963947      0.004179                    
P 26 -12430.696452  23223.171287  -1391.192197   -403.056727                    
V 26  -2593.267967   -321.657957  32437.325046     -0.520092                    
P 27  -2186.488953  14650.229220 -21385.232712    385.154456                    
V 27 -28500.145790   2825.525015   5180.734145      0.041706                    
P 28 -17592.753226  -4092.795289 -18998.834523    141.239479                    
V 28 -12372.998810 -21970.624171  15526.383282      0.040878                    
P 29   9949.319261  12709.253903  21167.812667    310.402868                    
V 29 -13027.477565  23323.821757  -7861.071206      0.039339                    
P 30  12038.693712  -9086.757756  21505.846915   -167.075712                    
V 30  18206.513447  21489.819770  -1087.809417     -0.186161                    
P 31  24235.683867  -7335.494257   8609.516516    239.241916                    
V 31  10667.700852   1097.079824 -29515.776696      0.041645                    
P 32  -5905.803736 -24201.990296  -9651.652038   -440.926279                    
V 32   8284.572596   9574.417980 -27981.984699     -0.041043                    
EOF
